{
  "type": "FeatureCollection",
  "features": [
    {
      "type": "Feature",
      "properties": {
        "norad_id": 28051,
        "name": "IRS-P6 (RESOURCESAT-1)",
        "group": "resource",
        "lat": -59.16843537393415,
        "lon": 50.810301448642775,
        "alt_km": 818.3968349125444,
        "timestamp": "2025-12-22T20:43:45.499227+00:00",
        "meta_object_name": "IRS-P6 (RESOURCESAT-1)",
        "meta_object_id": "2003-046A",
        "meta_epoch": "2025-12-22T15:01:48.798336",
        "meta_mean_motion": 14.36079446,
        "meta_eccentricity": 0.00647382,
        "meta_inclination": 98.2163,
        "meta_ra_of_asc_node": 36.5749,
        "meta_arg_of_pericenter": 151.1117,
        "meta_mean_anomaly": 1.4554,
        "meta_ephemeris_type": 0,
        "meta_classification_type": "U",
        "meta_norad_cat_id": 28051,
        "meta_element_set_no": 999,
        "meta_rev_at_epoch": 15518,
        "meta_bstar": 0.00011656869,
        "meta_mean_motion_dot": 3.07e-06,
        "meta_mean_motion_ddot": 0,
        "tle_line1": "1 28051U 03046A   25356.62625924  .00000307  00000+0  11657-3 0  9998",
        "tle_line2": "2 28051  98.2163  36.5749 0064738 151.1117   1.4554 14.36079446155189"
      },
      "geometry": {
        "type": "Point",
        "coordinates": [
          50.810301448642775,
          -59.16843537393415
        ]
      }
    },
    {
      "type": "Feature",
      "properties": {
        "norad_id": 28220,
        "name": "SHIYAN-1 (SY-1)",
        "group": "resource",
        "lat": -70.22343191427825,
        "lon": 81.69497482748389,
        "alt_km": 484.3844007857324,
        "timestamp": "2025-12-22T20:43:45.499238+00:00",
        "meta_object_name": "SHIYAN-1 (SY-1)",
        "meta_object_id": "2004-012A",
        "meta_epoch": "2025-12-21T21:28:24.522528",
        "meta_mean_motion": 15.28363795,
        "meta_eccentricity": 0.00051617,
        "meta_inclination": 97.8924,
        "meta_ra_of_asc_node": 57.9743,
        "meta_arg_of_pericenter": 287.3834,
        "meta_mean_anomaly": 72.684,
        "meta_ephemeris_type": 0,
        "meta_classification_type": "U",
        "meta_norad_cat_id": 28220,
        "meta_element_set_no": 999,
        "meta_rev_at_epoch": 18396,
        "meta_bstar": 0.00048309009,
        "meta_mean_motion_dot": 0.00013276,
        "meta_mean_motion_ddot": 0,
        "tle_line1": "1 28220U 04012A   25355.89472827  .00013276  00000+0  48309-3 0  9993",
        "tle_line2": "2 28220  97.8924  57.9743 0005161 287.3834  72.6840 15.28363795183961"
      },
      "geometry": {
        "type": "Point",
        "coordinates": [
          81.69497482748389,
          -70.22343191427825
        ]
      }
    },
    {
      "type": "Feature",
      "properties": {
        "norad_id": 28376,
        "name": "AURA",
        "group": "resource",
        "lat": 31.55276172356059,
        "lon": -58.01748778248805,
        "alt_km": 687.7592159207343,
        "timestamp": "2025-12-22T20:43:45.499249+00:00",
        "meta_object_name": "AURA",
        "meta_object_id": "2004-026A",
        "meta_epoch": "2025-12-22T12:21:54.171648",
        "meta_mean_motion": 14.60967711,
        "meta_eccentricity": 0.00013936,
        "meta_inclination": 98.3199,
        "meta_ra_of_asc_node": 306.7879,
        "meta_arg_of_pericenter": 92.1922,
        "meta_mean_anomaly": 267.9438,
        "meta_ephemeris_type": 0,
        "meta_classification_type": "U",
        "meta_norad_cat_id": 28376,
        "meta_element_set_no": 999,
        "meta_rev_at_epoch": 14041,
        "meta_bstar": 0.00019712098,
        "meta_mean_motion_dot": 9.18e-06,
        "meta_mean_motion_ddot": 0,
        "tle_line1": "1 28376U 04026A   25356.51521032  .00000918  00000+0  19712-3 0  9998",
        "tle_line2": "2 28376  98.3199 306.7879 0001393  92.1922 267.9438 14.60967711140419"
      },
      "geometry": {
        "type": "Point",
        "coordinates": [
          -58.01748778248805,
          31.55276172356059
        ]
      }
    },
    {
      "type": "Feature",
      "properties": {
        "norad_id": 28649,
        "name": "IRS-P5 (CARTOSAT-1)",
        "group": "resource",
        "lat": -55.99936270546468,
        "lon": -168.50955090958004,
        "alt_km": 604.1092933466898,
        "timestamp": "2025-12-22T20:43:45.499259+00:00",
        "meta_object_name": "IRS-P5 (CARTOSAT-1)",
        "meta_object_id": "2005-017A",
        "meta_epoch": "2025-12-22T13:13:31.817280",
        "meta_mean_motion": 14.90435728,
        "meta_eccentricity": 6.488e-05,
        "meta_inclination": 97.5483,
        "meta_ra_of_asc_node": 22.5289,
        "meta_arg_of_pericenter": 55.2209,
        "meta_mean_anomaly": 304.907,
        "meta_ephemeris_type": 0,
        "meta_classification_type": "U",
        "meta_norad_cat_id": 28649,
        "meta_element_set_no": 999,
        "meta_rev_at_epoch": 11750,
        "meta_bstar": 0.00015107404,
        "meta_mean_motion_dot": 1.42e-05,
        "meta_mean_motion_ddot": 0,
        "tle_line1": "1 28649U 05017A   25356.55106270  .00001420  00000+0  15107-3 0  9992",
        "tle_line2": "2 28649  97.5483  22.5289 0000648  55.2209 304.9070 14.90435728117506"
      },
      "geometry": {
        "type": "Point",
        "coordinates": [
          -168.50955090958004,
          -55.99936270546468
        ]
      }
    },
    {
      "type": "Feature",
      "properties": {
        "norad_id": 28893,
        "name": "SINAH 1",
        "group": "resource",
        "lat": -12.26010370336597,
        "lon": 127.25739424602097,
        "alt_km": 690.2806080919727,
        "timestamp": "2025-12-22T20:43:45.499269+00:00",
        "meta_object_name": "SINAH 1",
        "meta_object_id": "2005-043D",
        "meta_epoch": "2025-12-22T14:13:27.952896",
        "meta_mean_motion": 14.63972248,
        "meta_eccentricity": 0.00156856,
        "meta_inclination": 98.2609,
        "meta_ra_of_asc_node": 125.1765,
        "meta_arg_of_pericenter": 108.2413,
        "meta_mean_anomaly": 252.0498,
        "meta_ephemeris_type": 0,
        "meta_classification_type": "U",
        "meta_norad_cat_id": 28893,
        "meta_element_set_no": 999,
        "meta_rev_at_epoch": 7468,
        "meta_bstar": 8.263685e-05,
        "meta_mean_motion_dot": 3.84e-06,
        "meta_mean_motion_ddot": 0,
        "tle_line1": "1 28893U 05043D   25356.59268464  .00000384  00000+0  82637-4 0  9991",
        "tle_line2": "2 28893  98.2609 125.1765 0015685 108.2413 252.0498 14.63972248 74688"
      },
      "geometry": {
        "type": "Point",
        "coordinates": [
          127.25739424602097,
          -12.26010370336597
        ]
      }
    },
    {
      "type": "Feature",
      "properties": {
        "norad_id": 29079,
        "name": "EROS B",
        "group": "resource",
        "lat": -68.60138397278064,
        "lon": -85.27972404731206,
        "alt_km": 360.750535163068,
        "timestamp": "2025-12-22T20:43:45.499280+00:00",
        "meta_object_name": "EROS B",
        "meta_object_id": "2006-014A",
        "meta_epoch": "2025-12-22T13:33:20.417760",
        "meta_mean_motion": 15.71327143,
        "meta_eccentricity": 0.00038997,
        "meta_inclination": 97.3463,
        "meta_ra_of_asc_node": 113.6284,
        "meta_arg_of_pericenter": 310.936,
        "meta_mean_anomaly": 49.1565,
        "meta_ephemeris_type": 0,
        "meta_classification_type": "U",
        "meta_norad_cat_id": 29079,
        "meta_element_set_no": 999,
        "meta_rev_at_epoch": 9234,
        "meta_bstar": 0.0014360825,
        "meta_mean_motion_dot": 0.00185743,
        "meta_mean_motion_ddot": 0,
        "tle_line1": "1 29079U 06014A   25356.56481965  .00185743  00000+0  14361-2 0  9997",
        "tle_line2": "2 29079  97.3463 113.6284 0003899 310.9360  49.1565 15.71327143 92349"
      },
      "geometry": {
        "type": "Point",
        "coordinates": [
          -85.27972404731206,
          -68.60138397278064
        ]
      }
    },
    {
      "type": "Feature",
      "properties": {
        "norad_id": 29228,
        "name": "RESURS-DK 1",
        "group": "resource",
        "lat": -58.19870256676035,
        "lon": -68.2027811381279,
        "alt_km": 531.2209748638134,
        "timestamp": "2025-12-22T20:43:45.499291+00:00",
        "meta_object_name": "RESURS-DK 1",
        "meta_object_id": "2006-021A",
        "meta_epoch": "2025-12-22T11:42:44.959104",
        "meta_mean_motion": 15.1221149,
        "meta_eccentricity": 0.00068667,
        "meta_inclination": 69.9337,
        "meta_ra_of_asc_node": 76.645,
        "meta_arg_of_pericenter": 250.3556,
        "meta_mean_anomaly": 109.6869,
        "meta_ephemeris_type": 0,
        "meta_classification_type": "U",
        "meta_norad_cat_id": 29228,
        "meta_element_set_no": 999,
        "meta_rev_at_epoch": 7585,
        "meta_bstar": 0.00015666054,
        "meta_mean_motion_dot": 2.606e-05,
        "meta_mean_motion_ddot": 0,
        "tle_line1": "1 29228U 06021A   25356.48802036  .00002606  00000+0  15666-3 0  9994",
        "tle_line2": "2 29228  69.9337  76.6450 0006866 250.3556 109.6869 15.12211490 75852"
      },
      "geometry": {
        "type": "Point",
        "coordinates": [
          -68.2027811381279,
          -58.19870256676035
        ]
      }
    }
  ]
}